TEVEL2-7                
1 63238U 25052AE  26068.66113295  .00019244  00000+0  69668-3 0  9998
2 63238  97.4054 324.3041 0008105 124.6830 235.5175 15.28414096 54803
STARLINK-34198          
1 64388U 25127U   26068.31274676  .00027465  00000+0  10034-2 0  9997
2 64388  42.9952 181.5401 0001364 174.3802 185.7065 15.27593906 42411
